NORAD_CAT_ID,OBJECT_NAME,OBJECT_TYPE,EPOCH,MEAN_MOTION,ECCENTRICITY,INCLINATION,RA_OF_ASC_NODE,ARG_OF_PERICENTER,MEAN_ANOMALY,BSTAR,MEAN_MOTION_DOT,MEAN_MOTION_DDOT,TLE_LINE0,TLE_LINE1,TLE_LINE2,SEMIMAJOR_AXIS,PERIOD,APOGEE,PERIGEE,DECAYED
54798.0,STARLINK-5420,PAYLOAD,2023-02-27 08:00:01,15.5521188,0.000105,53.2137,312.7033,72.3108,125.9535,-0.015247,-0.00962118,0.0,0 STARLINK-5420,1 54798U 22175AS  23058.33334491 -.00962118  00000-0 -15247-1 0  9997,2 54798  53.2137 312.7033 0001050  72.3108 125.9535 15.55211880 10986,6779.674,92.592,402.251,400.827,0.0
54798.0,STARLINK-5420,PAYLOAD,2023-02-27 14:00:01,15.54683327,0.0001245,53.2137,311.498,88.74,69.7765,-0.014227,-0.00874971,0.0,0 STARLINK-5420,1 54798U 22175AS  23058.58334491 -.00874971  00000-0 -14227-1 0  9990,2 54798  53.2137 311.4980 0001245  88.7400  69.7765 15.54683327  1309,6781.21,92.623,403.92,402.231,0.0
54798.0,STARLINK-5420,PAYLOAD,2023-02-27 22:00:01,15.54049661,0.0001352,53.2135,309.8957,88.0206,136.8602,-0.015277,-0.00913989,0.0,0 STARLINK-5420,1 54798U 22175AS  23058.91668981 -.00913989  00000-0 -15277-1 0  9990,2 54798  53.2135 309.8957 0001352  88.0206 136.8602 15.54049661 11076,6783.054,92.661,405.836,404.001,0.0
54798.0,STARLINK-5420,PAYLOAD,2023-02-28 14:00:01,15.5273585,9.86e-05,53.213,306.6911,98.0718,257.0031,-0.015452,-0.00883909,0.0,0 STARLINK-5420,1 54798U 22175AS  23059.58334491 -.00883909  00000-0 -15452-1 0  9993,2 54798  53.2130 306.6911 0000986  98.0718 257.0031 15.52735850  1304,6786.879,92.74,409.413,408.075,0.0
54798.0,STARLINK-5420,PAYLOAD,2023-02-28 22:00:00,15.52101012,0.0001119,53.2131,305.0936,86.6217,332.4054,-0.016522,-0.00932857,0.0,0 STARLINK-5420,1 54798U 22175AS  23059.91667824 -.00932857  00000-0 -16522-1 0  9995,2 54798  53.2131 305.0936 0001119  86.6217 332.4054 15.52101012  1301,6788.73,92.777,411.354,409.835,0.0
54798.0,STARLINK-5420,PAYLOAD,2023-03-01 00:00:00,15.5191921,0.000128,53.2131,304.6944,84.6054,80.2928,-0.015918,-0.00884045,0.0,0 STARLINK-5420,1 54798U 22175AS  23060.00001157 -.00884045  00000-0 -15918-1 0  9991,2 54798  53.2131 304.6944 0001280  84.6054  80.2928 15.51919210 11249,6789.26,92.788,411.994,410.256,0.0
54798.0,STARLINK-5420,PAYLOAD,2023-03-01 14:00:01,15.50784259,0.0001183,53.2132,301.8982,97.592,87.0002,-0.016549,-0.00882416,0.0,0 STARLINK-5420,1 54798U 22175AS  23060.58334491 -.00882416  00000-0 -16549-1 0  9995,2 54798  53.2132 301.8982 0001183  97.5920  87.0002 15.50784259 11338,6792.572,92.856,415.241,413.633,0.0
54798.0,STARLINK-5420,PAYLOAD,2023-03-01 22:00:00,15.49973939,9.38e-05,53.2134,300.3054,82.2206,164.0019,-0.0028813,-0.00161162,0.0,0 STARLINK-5420,1 54798U 22175AS  23060.91667824 -.00161162  00000-0 -28813-2 0  9997,2 54798  53.2134 300.3054 0000938  82.2206 164.0019 15.49973939 11381,6794.939,92.905,417.442,416.167,0.0
54798.0,STARLINK-5420,PAYLOAD,2023-03-02 00:00:00,15.49868039,9.2e-05,53.2135,299.9074,81.5033,269.9947,0.00018371,9.982e-05,0.0,0 STARLINK-5420,1 54798U 22175AS  23061.00001157  .00009982  00000-0  18371-3 0  9997,2 54798  53.2135 299.9074 0000920  81.5033 269.9947 15.49868039  1308,6795.249,92.911,417.739,416.489,0.0
54798.0,STARLINK-5420,PAYLOAD,2023-03-02 20:00:01,15.49908296,9.48e-05,53.2136,295.9239,87.0665,236.6991,-0.00074033,-0.00042276,0.0,0 STARLINK-5420,1 54798U 22175AS  23061.83334491 -.00042276  00000-0 -74033-3 0  9990,2 54798  53.2136 295.9239 0000948  87.0665 236.6991 15.49908296  1300,6795.131,92.909,417.64,416.352,0.0
54798.0,STARLINK-5420,PAYLOAD,2023-03-03 14:00:01,15.49880113,9.31e-05,53.2132,292.3382,105.6461,85.1899,0.00023199,0.00012735,0.0,0 STARLINK-5420,1 54798U 22175AS  23062.58334491  .00012735  00000-0  23199-3 0  9995,2 54798  53.2132 292.3382 0000931 105.6461  85.1899 15.49880113 11648,6795.213,92.91,417.711,416.446,0.0
54798.0,STARLINK-5420,PAYLOAD,2023-03-03 22:00:00,15.49884466,9.45e-05,53.2131,290.7471,92.326,159.4256,-0.00022765,-0.00013349,0.0,0 STARLINK-5420,1 54798U 22175AS  23062.91667824 -.00013349  00000-0 -22765-3 0  9993,2 54798  53.2131 290.7471 0000945  92.3260 159.4256 15.49884466  1301,6795.201,92.91,417.708,416.424,0.0
54798.0,STARLINK-5420,PAYLOAD,2023-03-04 14:00:01,15.49861832,0.0001027,53.2132,287.559,111.9929,261.5709,0.0011411,0.00064797,0.0,0 STARLINK-5420,1 54798U 22175AS  23063.58334491  .00064797  00000-0  11411-2 0  9994,2 54798  53.2132 287.5590 0001027 111.9929 261.5709 15.49861832  1300,6795.267,92.912,417.83,416.434,0.0
54798.0,STARLINK-5420,PAYLOAD,2023-03-04 18:00:00,15.49913091,9.73e-05,53.2135,286.7634,106.367,117.6408,-0.00045484,-0.00026204,0.0,0 STARLINK-5420,1 54798U 22175AS  23063.75001157 -.00026204  00000-0 -45484-3 0  9994,2 54798  53.2135 286.7634 0000973 106.3670 117.6408 15.49913091 11823,6795.117,92.908,417.643,416.321,0.0
54798.0,STARLINK-5420,PAYLOAD,2023-03-04 22:00:00,15.49914662,9.39e-05,53.2134,285.9679,93.4934,340.9818,-0.00097554,-0.00055484,0.0,0 STARLINK-5420,1 54798U 22175AS  23063.91667824 -.00055484  00000-0 -97554-3 0  9998,2 54798  53.2134 285.9679 0000939  93.4934 340.9818 15.49914662  1306,6795.112,92.908,417.616,416.339,0.0
54798.0,STARLINK-5420,PAYLOAD,2023-03-05 00:00:00,15.49880393,9.11e-05,53.2135,285.5698,87.0475,92.6698,0.00015244,8.208e-05,0.0,0 STARLINK-5420,1 54798U 22175AS  23064.00001157  .00008208  00000-0  15244-3 0  9996,2 54798  53.2135 285.5698 0000911  87.0475  92.6698 15.49880393  1303,6795.213,92.91,417.697,416.459,0.0
54798.0,STARLINK-5420,PAYLOAD,2023-03-05 20:53:41,15.4989478,9.54e-05,53.2155,281.4068,124.8252,235.2848,1.7496e-05,5.42e-06,0.0,0 STARLINK-5420,1 54798U 22175AS  23064.87061517  .00000542  00000-0  17496-4 0  9992,2 54798  53.2155 281.4068 0000954 124.8252 235.2848 15.49894780 12007,6795.171,92.91,417.684,416.387,0.0
54798.0,STARLINK-5420,PAYLOAD,2023-03-06 17:00:51,15.49882961,8.23e-05,53.2156,277.3998,102.5468,257.5634,-1.2878e-05,-1.182e-05,0.0,0 STARLINK-5420,1 54798U 22175AS  23065.70892577 -.00001182  00000-0 -12878-4 0  9995,2 54798  53.2156 277.3998 0000823 102.5468 257.5634 15.49882961 12133,6795.205,92.91,417.629,416.511,0.0
54798.0,STARLINK-5420,PAYLOAD,2023-03-07 16:13:41,15.49899218,5.96e-05,53.2151,272.7764,96.7324,263.3754,8.7539e-06,4.6e-07,0.0,0 STARLINK-5420,1 54798U 22175AS  23066.67617918  .00000046  00000-0  87539-5 0  9999,2 54798  53.2151 272.7764 0000596  96.7324 263.3754 15.49899218 12287,6795.158,92.909,417.428,416.618,0.0
54798.0,STARLINK-5420,PAYLOAD,2023-03-08 06:09:25,15.49893831,6.39e-05,53.2164,270.0042,122.2744,237.8328,-7.1154e-06,-8.55e-06,0.0,0 STARLINK-5420,1 54798U 22175AS  23067.25654224 -.00000855  00000-0 -71154-5 0  9991,2 54798  53.2164 270.0042 0000639 122.2744 237.8328 15.49893831 12378,6795.173,92.91,417.473,416.604,0.0
54798.0,STARLINK-5420,PAYLOAD,2023-03-08 20:05:08,15.49904447,0.0001191,53.2154,267.2312,125.3297,234.7825,-4.7348e-05,-3.139e-05,0.0,0 STARLINK-5420,1 54798U 22175AS  23067.83690144 -.00003139  00000-0 -47348-4 0  9991,2 54798  53.2154 267.2312 0001191 125.3297 234.7825 15.49904447 14620,6795.142,92.909,417.817,416.198,0.0
54798.0,STARLINK-5420,PAYLOAD,2023-03-09 19:18:00,15.49854245,6.68e-05,53.2165,262.6063,105.4324,254.676,0.00014177,7.594e-05,0.0,0 STARLINK-5420,1 54798U 22175AS  23068.80417660  .00007594  00000-0  14177-3 0  9999,2 54798  53.2165 262.6063 0000668 105.4324 254.6760 15.49854245 12618,6795.289,92.912,417.608,416.7,0.0
54798.0,STARLINK-5420,PAYLOAD,2023-03-10 06:08:00,15.4988362,6.96e-05,53.2167,260.4488,97.1432,262.9658,1.0564e-06,-3.91e-06,0.0,0 STARLINK-5420,1 54798U 22175AS  23069.25556578 -.00000391  00000-0  10564-5 0  9998,2 54798  53.2167 260.4488 0000696  97.1432 262.9658 15.49883620 12689,6795.203,92.91,417.541,416.595,0.0
54798.0,STARLINK-5420,PAYLOAD,2023-03-10 21:36:35,15.49886403,8.9e-05,53.216,257.367,93.1192,266.992,5.6189e-06,-1.32e-06,0.0,0 STARLINK-5420,1 54798U 22175AS  23069.90040943 -.00000132  00000-0  56189-5 0  9990,2 54798  53.2160 257.3670 0000890  93.1192 266.9920 15.49886403 14944,6795.195,92.91,417.665,416.455,0.0
54798.0,STARLINK-5420,PAYLOAD,2023-03-11 05:20:52,15.49890021,8.59e-05,53.216,255.8258,94.2541,265.8567,1.367e-05,3.25e-06,0.0,0 STARLINK-5420,1 54798U 22175AS  23070.22282836  .00000325  00000-0  13670-4 0  9996,2 54798  53.2160 255.8258 0000859  94.2541 265.8567 15.49890021 12836,6795.185,92.91,417.633,416.466,0.0
54798.0,STARLINK-5420,PAYLOAD,2023-03-11 16:10:52,15.49887828,8.21e-05,53.2162,253.6683,94.1432,265.9672,2.2259e-05,8.13e-06,0.0,0 STARLINK-5420,1 54798U 22175AS  23070.67421908  .00000813  00000-0  22259-4 0  9995,2 54798  53.2162 253.6683 0000821  94.1432 265.9672 15.49887828 15060,6795.191,92.91,417.614,416.498,0.0
54798.0,STARLINK-5420,PAYLOAD,2023-03-11 23:55:09,15.49886693,9.05e-05,53.2166,252.1275,98.9373,261.174,5.89e-05,2.893e-05,0.0,0 STARLINK-5420,1 54798U 22175AS  23070.99663852  .00002893  00000-0  58900-4 0  9998,2 54798  53.2166 252.1275 0000905  98.9373 261.1740 15.49886693 15113,6795.194,92.91,417.674,416.444,0.0
54798.0,STARLINK-5420,PAYLOAD,2023-03-12 13:50:53,15.49886201,0.0001249,53.2158,249.3536,98.3974,261.7178,2.5593e-05,1.001e-05,0.0,0 STARLINK-5420,1 54798U 22175AS  23071.57700271  .00001001  00000-0  25593-4 0  9992,2 54798  53.2158 249.3536 0001249  98.3974 261.7178 15.49886201 13041,6795.196,92.91,417.909,416.212,0.0
54798.0,STARLINK-5420,PAYLOAD,2023-03-12 21:35:10,15.49888641,0.0001199,53.2169,247.814,80.905,279.2096,1.7558e-05,5.45e-06,0.0,0 STARLINK-5420,1 54798U 22175AS  23071.89942446  .00000545  00000-0  17558-4 0  9993,2 54798  53.2169 247.8140 0001199  80.9050 279.2096 15.49888641 15251,6795.189,92.91,417.868,416.239,0.0
54798.0,STARLINK-5420,PAYLOAD,2023-03-13 22:21:17,15.49659851,0.0002969,53.2156,242.8819,182.6337,177.4658,-0.00043094,-0.00024644,0.0,0 STARLINK-5420,1 54798U 22175AS  23072.93145701 -.00024644  00000-0 -43094-3 0  9999,2 54798  53.2156 242.8819 0002969 182.6337 177.4658 15.49659851 15419,6795.857,92.924,419.74,415.705,0.0
